{
  "links" : {
    "next" : "https://api.nasa.gov/neo/rest/v1/feed?start_date=2016-08-16&end_date=2016-08-16&detailed=true&api_key=t0TVs3DtDT2H8Oy2Zy8m2eVrNsAVKAexjcZXUckd",
    "prev" : "https://api.nasa.gov/neo/rest/v1/feed?start_date=2016-08-14&end_date=2016-08-14&detailed=true&api_key=t0TVs3DtDT2H8Oy2Zy8m2eVrNsAVKAexjcZXUckd",
    "self" : "https://api.nasa.gov/neo/rest/v1/feed?start_date=2016-08-15&end_date=2016-08-15&detailed=true&api_key=t0TVs3DtDT2H8Oy2Zy8m2eVrNsAVKAexjcZXUckd"
  },
  "element_count" : 6,
  "near_earth_objects" : {
    "2016-08-15" : [ {
      "links" : {
        "self" : "https://api.nasa.gov/neo/rest/v1/neo/2333578?api_key=t0TVs3DtDT2H8Oy2Zy8m2eVrNsAVKAexjcZXUckd"
      },
      "neo_reference_id" : "2333578",
      "name" : "333578 (2006 KM103)",
      "nasa_jpl_url" : "http://ssd.jpl.nasa.gov/sbdb.cgi?sstr=2333578",
      "absolute_magnitude_h" : 20.2,
      "estimated_diameter" : {
        "kilometers" : {
          "estimated_diameter_min" : 0.2424124811,
          "estimated_diameter_max" : 0.5420507863
        },
        "meters" : {
          "estimated_diameter_min" : 242.4124811008,
          "estimated_diameter_max" : 542.0507863358
        },
        "miles" : {
          "estimated_diameter_min" : 0.1506280858,
          "estimated_diameter_max" : 0.3368146392
        },
        "feet" : {
          "estimated_diameter_min" : 795.3165644948,
          "estimated_diameter_max" : 1778.3819018419
        }
      },
      "is_potentially_hazardous_asteroid" : true,
      "close_approach_data" : [ {
        "close_approach_date" : "2016-08-15",
        "epoch_date_close_approach" : 1471244400000,
        "relative_velocity" : {
          "kilometers_per_second" : "12.622397551",
          "kilometers_per_hour" : "45440.6311836907",
          "miles_per_hour" : "28235.0410818883"
        },
        "miss_distance" : {
          "astronomical" : "0.1895669437",
          "lunar" : "73.7415390015",
          "kilometers" : "28358810",
          "miles" : "17621348"
        },
        "orbiting_body" : "Earth"
      } ],
      "orbital_data" : {
        "orbit_id" : "83",
        "orbit_determination_date" : "2017-04-06 09:23:27",
        "orbit_uncertainty" : "0",
        "minimum_orbit_intersection" : ".0130652",
        "jupiter_tisserand_invariant" : "4.304",
        "epoch_osculation" : "2458000.5",
        "eccentricity" : ".3768073209959183",
        "semi_major_axis" : "1.573763858961513",
        "inclination" : "11.68216017014653",
        "ascending_node_longitude" : "169.5007233624131",
        "orbital_period" : "721.1203945244606",
        "perihelion_distance" : ".9807581153860272",
        "perihelion_argument" : "196.94841610692",
        "aphelion_distance" : "2.166769602536999",
        "perihelion_time" : "2457645.294567264879",
        "mean_anomaly" : "177.3267775472767",
        "mean_motion" : ".4992231570948708",
        "equinox" : "J2000"
      }
    }, {
      "links" : {
        "self" : "https://api.nasa.gov/neo/rest/v1/neo/3425295?api_key=t0TVs3DtDT2H8Oy2Zy8m2eVrNsAVKAexjcZXUckd"
      },
      "neo_reference_id" : "3425295",
      "name" : "(2008 QB)",
      "nasa_jpl_url" : "http://ssd.jpl.nasa.gov/sbdb.cgi?sstr=3425295",
      "absolute_magnitude_h" : 20.8,
      "estimated_diameter" : {
        "kilometers" : {
          "estimated_diameter_min" : 0.1838886721,
          "estimated_diameter_max" : 0.411187571
        },
        "meters" : {
          "estimated_diameter_min" : 183.8886720703,
          "estimated_diameter_max" : 411.1875710413
        },
        "miles" : {
          "estimated_diameter_min" : 0.1142630881,
          "estimated_diameter_max" : 0.2555000322
        },
        "feet" : {
          "estimated_diameter_min" : 603.309310875,
          "estimated_diameter_max" : 1349.040630575
        }
      },
      "is_potentially_hazardous_asteroid" : false,
      "close_approach_data" : [ {
        "close_approach_date" : "2016-08-15",
        "epoch_date_close_approach" : 1471244400000,
        "relative_velocity" : {
          "kilometers_per_second" : "34.313544249",
          "kilometers_per_hour" : "123528.7592964565",
          "miles_per_hour" : "76755.9671306232"
        },
        "miss_distance" : {
          "astronomical" : "0.2218632266",
          "lunar" : "86.3047943115",
          "kilometers" : "33190266",
          "miles" : "20623476"
        },
        "orbiting_body" : "Earth"
      } ],
      "orbital_data" : {
        "orbit_id" : "11",
        "orbit_determination_date" : "2017-04-06 09:03:05",
        "orbit_uncertainty" : "1",
        "minimum_orbit_intersection" : ".0534663",
        "jupiter_tisserand_invariant" : "4.841",
        "epoch_osculation" : "2458000.5",
        "eccentricity" : ".7390586784032123",
        "semi_major_axis" : "1.206154882253553",
        "inclination" : "35.73116112103001",
        "ascending_node_longitude" : "146.9630842440419",
        "orbital_period" : "483.841421619278",
        "perihelion_distance" : ".3147356490256601",
        "perihelion_argument" : "314.1952797167211",
        "aphelion_distance" : "2.097574115481447",
        "perihelion_time" : "2458144.148345353583",
        "mean_anomaly" : "253.1191046971136",
        "mean_motion" : ".7440454328924209",
        "equinox" : "J2000"
      }
    }, {
      "links" : {
        "self" : "https://api.nasa.gov/neo/rest/v1/neo/3608622?api_key=t0TVs3DtDT2H8Oy2Zy8m2eVrNsAVKAexjcZXUckd"
      },
      "neo_reference_id" : "3608622",
      "name" : "(2012 RL15)",
      "nasa_jpl_url" : "http://ssd.jpl.nasa.gov/sbdb.cgi?sstr=3608622",
      "absolute_magnitude_h" : 24.3,
      "estimated_diameter" : {
        "kilometers" : {
          "estimated_diameter_min" : 0.0366906138,
          "estimated_diameter_max" : 0.0820427065
        },
        "meters" : {
          "estimated_diameter_min" : 36.6906137531,
          "estimated_diameter_max" : 82.0427064882
        },
        "miles" : {
          "estimated_diameter_min" : 0.0227984834,
          "estimated_diameter_max" : 0.0509789586
        },
        "feet" : {
          "estimated_diameter_min" : 120.3760332259,
          "estimated_diameter_max" : 269.1689931548
        }
      },
      "is_potentially_hazardous_asteroid" : false,
      "close_approach_data" : [ {
        "close_approach_date" : "2016-08-15",
        "epoch_date_close_approach" : 1471244400000,
        "relative_velocity" : {
          "kilometers_per_second" : "15.9610198695",
          "kilometers_per_hour" : "57459.671530231",
          "miles_per_hour" : "35703.2053461038"
        },
        "miss_distance" : {
          "astronomical" : "0.4498638767",
          "lunar" : "174.9970550537",
          "kilometers" : "67298680",
          "miles" : "41817460"
        },
        "orbiting_body" : "Earth"
      } ],
      "orbital_data" : {
        "orbit_id" : "7",
        "orbit_determination_date" : "2017-04-06 08:49:01",
        "orbit_uncertainty" : "7",
        "minimum_orbit_intersection" : ".077424",
        "jupiter_tisserand_invariant" : "6.638",
        "epoch_osculation" : "2458000.5",
        "eccentricity" : ".2940179782073041",
        "semi_major_axis" : ".8766289996357493",
        "inclination" : "26.49645631312304",
        "ascending_node_longitude" : "172.9998697407372",
        "orbital_period" : "299.7934755168271",
        "perihelion_distance" : ".6188843135249548",
        "perihelion_argument" : "334.079659313107",
        "aphelion_distance" : "1.134373685746544",
        "perihelion_time" : "2458097.260118828766",
        "mean_anomaly" : "243.8078690061405",
        "mean_motion" : "1.200826667022624",
        "equinox" : "J2000"
      }
    } ]
  }
}